*******************************************************************************
Ephemeris / WWW_USER Wed Mar 14 15:34:28 2018 Pasadena, USA      / Horizons    
*******************************************************************************
Target body name: Neptune (899)                   {source: nep081xl}
Center body name: Solar System Barycenter (0)     {source: DE431mx}
Center-site name: BODY CENTER
*******************************************************************************
Start time      : A.D. 2000-Jan-01 00:00:00.0000 TDB
Stop  time      : A.D. 2001-Jan-01 00:00:00.0000 TDB
Step-size       : 7200 minutes
*******************************************************************************
Center geodetic : 0.00000000,0.00000000,0.0000000 {E-lon(deg),Lat(deg),Alt(km)}
Center cylindric: 0.00000000,0.00000000,0.0000000 {E-lon(deg),Dxy(km),Dz(km)}
Center radii    : (undefined)                                                  
Output units    : AU-D                                                         
Output type     : GEOMETRIC cartesian states
Output format   : 2 (position and velocity)
Reference frame : ICRF/J2000.0                                                 
Coordinate systm: Ecliptic and Mean Equinox of Reference Epoch                 
*******************************************************************************
JDTDB
   X     Y     Z
   VX    VY    VZ
*******************************************************************************
$$SOE
2451544.500000000 = A.D. 2000-Jan-01 00:00:00.0000 TDB 
   1.680361764335730E+01 -2.499544328458694E+01  1.274772016011350E-01
   2.584589572083709E-03  1.768943546348827E-03 -9.629380362804233E-05
2451549.500000000 = A.D. 2000-Jan-06 00:00:00.0000 TDB 
   1.681653902814420E+01 -2.498659280331224E+01  1.269974948858154E-01
   2.584102064637588E-03  1.770492532481397E-03 -9.640831742917629E-05
2451554.500000000 = A.D. 2000-Jan-11 00:00:00.0000 TDB 
   1.682945555703046E+01 -2.497773581650664E+01  1.265177016440286E-01
   2.583393504571681E-03  1.772221506169486E-03 -9.619770796492669E-05
2451559.500000000 = A.D. 2000-Jan-16 00:00:00.0000 TDB 
   1.684236751386084E+01 -2.496887235270088E+01  1.260375981528992E-01
   2.582297755086262E-03  1.773824909151320E-03 -9.583951010532792E-05
2451564.500000000 = A.D. 2000-Jan-21 00:00:00.0000 TDB 
   1.685527519042164E+01 -2.496000219934799E+01  1.255571858882863E-01
   2.580964162008220E-03  1.775099313095638E-03 -9.563170188710020E-05
2451569.500000000 = A.D. 2000-Jan-26 00:00:00.0000 TDB 
   1.686817864534708E+01 -2.495112507821865E+01  1.250766904328905E-01
   2.579735641363467E-03  1.776109489330204E-03 -9.574949886661878E-05
2451574.500000000 = A.D. 2000-Jan-31 00:00:00.0000 TDB 
   1.688107765334735E+01 -2.494224087443771E+01  1.245963774540655E-01
   2.578868746360094E-03  1.777135559367118E-03 -9.610231173440203E-05
2451579.500000000 = A.D. 2000-Feb-05 00:00:00.0000 TDB 
   1.689397188622116E+01 -2.493334973217458E+01  1.241163359457896E-01
   2.578324228678485E-03  1.778444305986449E-03 -9.640768195228502E-05
2451584.500000000 = A.D. 2000-Feb-10 00:00:00.0000 TDB 
   1.690686117787697E+01 -2.492445193884671E+01  1.236364056819023E-01
   2.577799083898118E-03  1.780071360009552E-03 -9.642184604336296E-05
2451589.500000000 = A.D. 2000-Feb-15 00:00:00.0000 TDB 
   1.691974565700861E+01 -2.491554769236070E+01  1.231563081115427E-01
   2.576973934363424E-03  1.781792094586601E-03 -9.613873671031823E-05
2451594.500000000 = A.D. 2000-Feb-20 00:00:00.0000 TDB 
   1.693262563910344E+01 -2.490663694143731E+01  1.226758738448131E-01
   2.575773747972695E-03  1.783305030732411E-03 -9.579491425232884E-05
2451599.500000000 = A.D. 2000-Feb-25 00:00:00.0000 TDB 
   1.694550136599524E+01 -2.489771942937014E+01  1.221951810203711E-01
   2.574429049124663E-03  1.784477936380339E-03 -9.567647880502531E-05
2451604.500000000 = A.D. 2000-Mar-01 00:00:00.0000 TDB 
   1.695837280555184E+01 -2.488879490548380E+01  1.217144916411076E-01
   2.573287751426095E-03  1.785455794477414E-03 -9.588554768340361E-05
2451609.500000000 = A.D. 2000-Mar-06 00:00:00.0000 TDB 
   1.697123967500561E+01 -2.487986333169413E+01  1.212340378169167E-01
   2.572531130187544E-03  1.786542459610609E-03 -9.625687614086690E-05
2451614.500000000 = A.D. 2000-Mar-11 00:00:00.0000 TDB 
   1.698410166889520E+01 -2.487092491551430E+01  1.207538323985182E-01
   2.572025848412613E-03  1.787952590026629E-03 -9.649274046512466E-05
2451619.500000000 = A.D. 2000-Mar-16 00:00:00.0000 TDB 
   1.699695870552786E+01 -2.486197994255291E+01  1.202736585839068E-01
   2.571432807666792E-03  1.789636382883238E-03 -9.640596585629799E-05
2451624.500000000 = A.D. 2000-Mar-21 00:00:00.0000 TDB 
   1.700981099075491E+01 -2.485302854523917E+01  1.197932470010962E-01
   2.570484002120099E-03  1.791320228116055E-03 -9.607273171886063E-05
2451629.500000000 = A.D. 2000-Mar-26 00:00:00.0000 TDB 
   1.702265884700376E+01 -2.484407059661684E+01  1.193124956963263E-01
   2.569201278257403E-03  1.792730097437667E-03 -9.577036200470114E-05
2451634.500000000 = A.D. 2000-Mar-31 00:00:00.0000 TDB 
   1.703550244718069E+01 -2.483510581589040E+01  1.188315534577456E-01
   2.567878473353118E-03  1.793815229218263E-03 -9.575097761886380E-05
2451639.500000000 = A.D. 2000-Apr-05 00:00:00.0000 TDB 
   1.704834167062756E+01 -2.482613399956414E+01  1.183506984850175E-01
   2.566841565790599E-03  1.794789600945334E-03 -9.603569403261743E-05
2451644.500000000 = A.D. 2000-Apr-10 00:00:00.0000 TDB 
   1.706117619872984E+01 -2.481715518949932E+01  1.178701114054092E-01
   2.566182550892029E-03  1.795957247857272E-03 -9.639736591001429E-05
2451649.500000000 = A.D. 2000-Apr-15 00:00:00.0000 TDB 
   1.707400577212662E+01 -2.480816964066371E+01  1.173897279294812E-01
   2.565684350665391E-03  1.797464043335793E-03 -9.654599967211835E-05
2451654.500000000 = A.D. 2000-Apr-20 00:00:00.0000 TDB 
   1.708683039954240E+01 -2.479917761489156E+01  1.169092914299154E-01
   2.564998035641990E-03  1.799178588420110E-03 -9.636548032899473E-05
2451659.500000000 = A.D. 2000-Apr-25 00:00:00.0000 TDB 
   1.709965034775119E+01 -2.479017916902981E+01  1.164285625341590E-01
   2.563927696053334E-03  1.800799493665153E-03 -9.600835784974088E-05
2451664.500000000 = A.D. 2000-Apr-30 00:00:00.0000 TDB 
   1.711246592089024E+01 -2.478117411044911E+01  1.159475146188862E-01
   2.562590329350503E-03  1.802101429244419E-03 -9.577130711241598E-05
2451669.500000000 = A.D. 2000-May-05 00:00:00.0000 TDB 
   1.712527720930252E+01 -2.477216215620898E+01  1.154663556522015E-01
   2.561320327726124E-03  1.803119068261392E-03 -9.585298741739984E-05
2451674.500000000 = A.D. 2000-May-10 00:00:00.0000 TDB 
   1.713808401289868E+01 -2.476314316596678E+01  1.149853585517336E-01
   2.560396508033375E-03  1.804118810593558E-03 -9.619186695126528E-05
2451679.500000000 = A.D. 2000-May-15 00:00:00.0000 TDB 
   1.715088600161540E+01 -2.475411725848907E+01  1.145046385094361E-01
   2.559814495530221E-03  1.805381298302317E-03 -9.651643715257578E-05
2451684.500000000 = A.D. 2000-May-20 00:00:00.0000 TDB 
   1.716368298197610E+01 -2.474508471662416E+01  1.140240590603652E-01
   2.559290301333646E-03  1.806972290035048E-03 -9.656683758776837E-05
2451689.500000000 = A.D. 2000-May-25 00:00:00.0000 TDB 
   1.717647505214282E+01 -2.473604575830468E+01  1.135433435805271E-01
   2.558492178207742E-03  1.808688955735697E-03 -9.630699609581168E-05
2451694.500000000 = A.D. 2000-May-30 00:00:00.0000 TDB 
   1.718926251886779E+01 -2.472700036055078E+01  1.130623012014683E-01
   2.557311446276269E-03  1.810225487336911E-03 -9.595405712176158E-05
2451699.500000000 = A.D. 2000-Jun-04 00:00:00.0000 TDB 
   1.720204564419170E+01 -2.471794828015692E+01  1.125809827099567E-01
   2.555951168329990E-03  1.811422735803498E-03 -9.580113547070802E-05
2451704.500000000 = A.D. 2000-Jun-09 00:00:00.0000 TDB 
   1.721482442865595E+01 -2.470888925415635E+01  1.120996392087340E-01
   2.554760397822048E-03  1.812398146727106E-03 -9.597807351239440E-05
2451709.500000000 = A.D. 2000-Jun-14 00:00:00.0000 TDB 
   1.722759860797826E+01 -2.469982321644311E+01  1.116185172592870E-01
   2.553949223898501E-03  1.813449902814722E-03 -9.634543007607772E-05
2451714.500000000 = A.D. 2000-Jun-19 00:00:00.0000 TDB 
   1.724036786592344E+01 -2.469075035368463E+01  1.111376577195891E-01
   2.553417272823367E-03  1.814813486432531E-03 -9.660830021336133E-05
2451719.500000000 = A.D. 2000-Jun-24 00:00:00.0000 TDB 
   1.725313208957994E+01 -2.468167095486924E+01  1.106568624888332E-01
   2.552835649550828E-03  1.816469417269508E-03 -9.655703913846709E-05
2451724.500000000 = A.D. 2000-Jun-29 00:00:00.0000 TDB 
   1.726589145864244E+01 -2.467258517730212E+01  1.101758563232622E-01
   2.551915460547520E-03  1.818159145184028E-03 -9.623841224774132E-05
2451729.500000000 = A.D. 2000-Jul-04 00:00:00.0000 TDB 
   1.727864629581345E+01 -2.466349292011857E+01  1.096945116197904E-01
   2.550643634476513E-03  1.819596148610663E-03 -9.591739626073649E-05
2451734.500000000 = A.D. 2000-Jul-09 00:00:00.0000 TDB 
   1.729139680049764E+01 -2.465439390856111E+01  1.092129526746768E-01
   2.549293557312544E-03  1.820699818014527E-03 -9.586090493037150E-05
2451739.500000000 = A.D. 2000-Jul-14 00:00:00.0000 TDB 
   1.730414288314763E+01 -2.464528792021590E+01  1.087314543453631E-01
   2.548201920038223E-03  1.821661291198746E-03 -9.611991876239607E-05
2451744.500000000 = A.D. 2000-Jul-19 00:00:00.0000 TDB 
   1.731688423549279E+01 -2.463617496854291E+01  1.082502177966705E-01
   2.547493849213050E-03  1.822787422905998E-03 -9.648784857849325E-05
2451749.500000000 = A.D. 2000-Jul-24 00:00:00.0000 TDB 
   1.732962057932493E+01 -2.462705529384196E+01  1.077692063926071E-01
   2.546980769411756E-03  1.824250263630296E-03 -9.666916874109050E-05
